0 IRIDIUM 33 DEB
1 34895U 97051MX  13282.33278995  .00006678  00000-0  15732-2 0  7000
2 34895 086.4268 132.3422 0108259 315.1335 044.1154 14.50622040239364
0 IRIDIUM 33 DEB
1 34895U 97051MX  13288.33383698  .00014368  00000-0  33955-2 0  7027
2 34895 086.4230 129.7803 0104968 295.3318 063.7044 14.50719651240237
0 IRIDIUM 33 DEB
1 34895U 97051MX  13289.50638931  .00014560  00000-0  34302-2 0  7032
2 34895 086.4253 129.2881 0106626 291.1961 067.7878 14.50759343240404
0 IRIDIUM 33 DEB
1 34895U 97051MX  13290.81686694  .00013005  00000-0  30619-2 0  7048
2 34895 086.4251 128.7324 0106609 286.7988 072.1543 14.50790583240598
0 IRIDIUM 33 DEB
1 34895U 97051MX  13292.33422574  .00014512  00000-0  34160-2 0  7052
2 34895 086.4248 128.0829 0106142 281.6129 077.3178 14.50828603240811
0 IRIDIUM 33 DEB
1 34895U 97051MX  13293.78257862  .00016751  00000-0  39401-2 0  7069
2 34895 086.4250 127.4657 0106061 276.6682 082.2460 14.50862312241022
0 IRIDIUM 33 DEB
1 34895U 97051MX  13295.50676532  .00019680  00000-0  46239-2 0  7072
2 34895 086.4251 126.7320 0105999 270.7680 088.1381 14.50908206241271
